[{"OBJECT_NAME":"STARLINK-30502","OBJECT_ID":"2023-151K","EPOCH":"2026-03-09T01:50:18.055968","MEAN_MOTION":15.27576128,"ECCENTRICITY":0.00019247,"INCLINATION":43.0036,"RA_OF_ASC_NODE":339.3691,"ARG_OF_PERICENTER":254.6619,"MEAN_ANOMALY":105.402,"EPHEMERIS_TYPE":0,"CLASSIFICATION_TYPE":"U","NORAD_CAT_ID":57973,"ELEMENT_SET_NO":999,"REV_AT_EPOCH":13567,"BSTAR":-0.00011181,"MEAN_MOTION_DOT":-3.338e-5,"MEAN_MOTION_DDOT":0},{"OBJECT_NAME":"HERMES-4","OBJECT_ID":"2025-052BP","EPOCH":"2026-03-09T22:05:58.629408","MEAN_MOTION":15.26796135,"ECCENTRICITY":0.00026523,"INCLINATION":97.4,"RA_OF_ASC_NODE":323.461,"ARG_OF_PERICENTER":154.9526,"MEAN_ANOMALY":205.1842,"EPHEMERIS_TYPE":0,"CLASSIFICATION_TYPE":"U","NORAD_CAT_ID":63833,"ELEMENT_SET_NO":999,"REV_AT_EPOCH":5478,"BSTAR":0.00081237216,"MEAN_MOTION_DOT":0.00021364,"MEAN_MOTION_DDOT":0}]
